STARLINK-4027           
1 52601U 22052D   22142.58334491 -.00873802  00000+0 -60271-2 0  9990
2 52601  53.2172  41.3057 0001107  72.9777  57.5042 15.76284997  1309
STARLINK-4012           
1 52602U 22052E   22142.58334491 -.00873948  00000+0 -60228-2 0  9994
2 52602  53.2172  41.3053 0001072  94.2341  36.7237 15.76305490  1308
STARLINK-4016           
1 52603U 22052F   22142.58334491 -.00873988  00000+0 -59952-2 0  9991
2 52603  53.2172  41.2997 0001085  88.8164  44.4960 15.76409697  1304
STARLINK-4013           
1 52604U 22052G   22142.58334491 -.00874044  00000+0 -60124-2 0  9999
2 52604  53.2172  41.3032 0001087  87.4536  44.4503 15.76346932  1301
STARLINK-4000           
1 52605U 22052H   22142.58334491 -.00874037  00000+0 -59897-2 0  9997
2 52605  53.2172  41.2988 0001086  91.8378  41.9362 15.76431685  1308
STARLINK-3928           
1 52606U 22052J   22142.58334491 -.00874026  00000+0 -60067-2 0  9997
2 52606  53.2172  41.3021 0001070  93.3755  38.9984 15.76367881  1309
STARLINK-3947           
1 52607U 22052K   22142.58334491 -.00874112  00000+0 -59742-2 0  9992
2 52607  53.2172  41.2958 0001074  96.7547  38.4328 15.76492073  1307
STARLINK-3979           
1 52608U 22052L   22142.58334491 -.00874042  00000+0 -59846-2 0  9990
2 52608  53.2172  41.2982 0001067  96.6937  37.5565 15.76451098  1304
STARLINK-3997           
1 52609U 22052M   22142.58334491 -.00874128  00000+0 -59624-2 0  9990
2 52609  53.2172  41.2938 0001088 102.1078  33.9902 15.76536731  1301
STARLINK-3998           
1 52610U 22052N   22142.58334491 -.00874021  00000+0 -59784-2 0  9991
2 52610  53.2172  41.2970 0001077  92.0426  42.6634 15.76473678  1300
STARLINK-3980           
1 52611U 22052P   22142.58334491 -.00874079  00000+0 -59566-2 0  9993
2 52611  53.2172  41.2927 0001076  88.8407  47.7226 15.76557260  1307
STARLINK-4002           
1 52612U 22052Q   22142.58334491 -.00873982  00000+0 -59669-2 0  9990
2 52612  53.2172  41.2950 0001079  94.3705  41.2636 15.76515755  1307
STARLINK-3921           
1 52613U 22052R   22142.58334491 -.00873883  00000+0 -59441-2 0  9999
2 52613  53.2171  41.2907 0001118  89.8505  47.6393 15.76598432  1303
STARLINK-3982           
1 52614U 22052S   22142.58334491 -.00874039  00000+0 -59515-2 0  9996
2 52614  53.2172  41.2920 0001083  85.5765  51.4671 15.76575288  1308
STARLINK-4011           
1 52615U 22052T   22142.58334491 -.00874148  00000+0 -59296-2 0  9994
2 52615  53.2172  41.2878 0001069  94.7157  44.1543 15.76661092  1308
STARLINK-4015           
1 52616U 22052U   22142.58334491 -.00874022  00000+0 -59408-2 0  9991
2 52616  53.2172  41.2900 0001064  89.1181  48.8590 15.76615286  1302
STARLINK-3996           
1 52617U 22052V   22142.58334491 -.00874179  00000+0 -59133-2 0  9990
2 52617  53.2172  41.2848 0001085  89.4099  50.8340 15.76723454  1301
STARLINK-3983           
1 52618U 22052W   22142.58334491 -.00874149  00000+0 -59351-2 0  9990
2 52618  53.2172  41.2890 0001069  93.7341  44.6761 15.76640352  1302
STARLINK-3741           
1 52619U 22052X   22142.58334491 -.00873973  00000+0 -59063-2 0  9995
2 52619  53.2171  41.2838 0001081  81.9830  58.7167 15.76744176  1305
STARLINK-3975           
1 52620U 22052Y   22142.58334491 -.00874029  00000+0 -59236-2 0  9992
2 52620  53.2171  41.2870 0001076  89.4381  49.9003 15.76680347  1301
STARLINK-3984           
1 52621U 22052Z   22142.58334491 -.00874316  00000+0 -58928-2 0  9999
2 52621  53.2172  41.2809 0001086  92.7659  49.3095 15.76805043  1308
STARLINK-4008           
1 52622U 22052AA  22142.58334491 -.00874125  00000+0 -59187-2 0  9996
2 52622  53.2172  41.2861 0001069  90.0178  49.7756 15.76701637  1307
STARLINK-3986           
1 52623U 22052AB  22142.58334491 -.00874197  00000+0 -58812-2 0  9990
2 52623  53.2171  41.2790 0001092  93.6165  49.3700 15.76845674  1304
STARLINK-4009           
1 52624U 22052AC  22142.58334491 -.00874315  00000+0 -59036-2 0  9992
2 52624  53.2172  41.2832 0001103  99.3369  41.8270 15.76763895  1308
STARLINK-3988           
1 52625U 22052AD  22142.58334491 -.00874329  00000+0 -58778-2 0  9990
2 52625  53.2172  41.2779 0001102  92.1036  51.3643 15.76862256  1301
STARLINK-3990           
1 52626U 22052AE  22142.58334491 -.00874077  00000+0 -58974-2 0  9999
2 52626  53.2171  41.2821 0001088  84.8513  56.7927 15.76780794  1300
STARLINK-3992           
1 52627U 22052AF  22142.58334491 -.00874235  00000+0 -58597-2 0  9997
2 52627  53.2171  41.2752 0001095  95.5069  49.2821 15.76928593  1308
STARLINK-4001           
1 52628U 22052AG  22142.58334491 -.00874202  00000+0 -58877-2 0  9993
2 52628  53.2171  41.2801 0001094  97.2496  45.3107 15.76821115  1302
STARLINK-4022           
1 52629U 22052AH  22142.58334491 -.00874188  00000+0 -58539-2 0  9992
2 52629  53.2171  41.2742 0001084  86.3235  58.9127 15.76949479  1302
STARLINK-3989           
1 52630U 22052AJ  22142.58334491 -.00874178  00000+0 -58703-2 0  9996
2 52630  53.2171  41.2774 0001071  91.6382  52.2533 15.76886794  1305
STARLINK-3794           
1 52631U 22052AK  22142.58334491 -.00874238  00000+0 -58448-2 0  9990
2 52631  53.2171  41.2723 0001096  82.7722  63.3979 15.76985524  1304
STARLINK-3995           
1 52632U 22052AL  22142.58334491 -.00874228  00000+0 -58656-2 0  9991
2 52632  53.2171  41.2763 0001093  94.0821  50.2712 15.76905911  1304
STARLINK-3994           
1 52633U 22052AM  22142.58334491 -.00874287  00000+0 -58291-2 0  9992
2 52633  53.2171  41.2694 0001097  91.1563  56.3560 15.77046937  1306
STARLINK-3974           
1 52634U 22052AN  22142.58334491 -.00874187  00000+0 -58487-2 0  9999
2 52634  53.2171  41.2736 0001086  89.7202  55.9704 15.76969266  1308
STARLINK-3978           
1 52635U 22052AP  22142.58334491 -.00874431  00000+0 -58195-2 0  9998
2 52635  53.2171  41.2676 0001100  89.1635  59.2414 15.77087728  1303
STARLINK-3967           
1 52636U 22052AQ  22142.58334491 -.00874191  00000+0 -58389-2 0  9997
2 52636  53.2171  41.2717 0001085  90.2750  56.3368 15.77006836  1300
STARLINK-3961           
1 52637U 22052AR  22142.58334491 -.00874382  00000+0 -58139-2 0  9993
2 52637  53.2171  41.2665 0001111  89.7107  59.1416 15.77107737  1309
STARLINK-3941           
1 52638U 22052AS  22142.58334491 -.00874338  00000+0 -58338-2 0  9996
2 52638  53.2171  41.2707 0001092  92.7479  54.2892 15.77030440  1301
STARLINK-3968           
1 52639U 22052AT  22142.58334491 -.00874420  00000+0 -57983-2 0  9994
2 52639  53.2171  41.2637 0001097  93.0327  57.1497 15.77168833  1306
STARLINK-3977           
1 52640U 22052AU  22142.58334491 -.00874169  00000+0 -58222-2 0  9993
2 52640  53.2171  41.2688 0001081  82.8673  65.0696 15.77070179  1301
STARLINK-3991           
1 52641U 22052AV  22142.58334491 -.00874439  00000+0 -57933-2 0  9992
2 52641  53.2171  41.2627 0001090  97.7371  52.8910 15.77188669  1302
STARLINK-3971           
1 52642U 22052AW  22142.58334491 -.00874538  00000+0 -58095-2 0  9993
2 52642  53.2171  41.2659 0001104  93.7109  55.5789 15.77129071  1305
STARLINK-3963           
1 52643U 22052AX  22142.58334491 -.00874389  00000+0 -57756-2 0  9991
2 52643  53.2171  41.2600 0001081  88.8617  63.0428 15.77255484  1307
STARLINK-3985           
1 52644U 22052AY  22142.58334491 -.00874524  00000+0 -58035-2 0  9994
2 52644  53.2171  41.2650 0001117  94.5945  55.1224 15.77151604  1306
STARLINK-3973           
1 52645U 22052AZ  22142.58334491 -.00874446  00000+0 -57707-2 0  9993
2 52645  53.2171  41.2590 0001109  90.8605  61.4837 15.77275739  1309
STARLINK-3832           
1 52646U 22052BA  22142.58334491 -.00874468  00000+0 -57882-2 0  9992
2 52646  53.2171  41.2620 0001109  97.3827  53.6875 15.77208927  1302
STARLINK-3846           
1 52647U 22052BB  22142.58334491 -.00874480  00000+0 -57602-2 0  9997
2 52647  53.2171  41.2571 0001094  94.1551  59.0564 15.77317375  1303
STARLINK-3854           
1 52648U 22052BC  22142.58334491 -.00874519  00000+0 -57829-2 0  9992
2 52648  53.2171  41.2612 0001107  98.6854  52.8138 15.77230805  1300
STARLINK-3868           
1 52649U 22052BD  22142.58334491 -.00874175  00000+0 -57649-2 0  9991
2 52649  53.2171  41.2579 0001118  72.4910  80.3337 15.77290421  1305
STARLINK-3891           
1 52650U 22052BE  22142.58334491 -.00874372  00000+0 -57544-2 0  9996
2 52650  53.2171  41.2567 0001086  83.6731  69.9810 15.77336828  1304
FALCON 9 DEB            
1 52651U 22052BF  22140.46138439  .00240870  31930-4  83773-3 0  9999
2 52651  53.2090  51.7681 0012149 276.5534  83.4109 15.88868775   892
FALCON 9 DEB            
1 52652U 22052BG  22140.46013397  .00247552  33239-4  84232-3 0  9994
2 52652  53.2098  51.7610 0012569 288.2929  71.6730 15.89286746   899
FALCON 9 DEB            
1 52653U 22052BH  22140.45653208  .00266985  37285-4  86180-3 0  9995
2 52653  53.2120  51.7414 0007676 283.7123  76.3050 15.90393949   890
FALCON 9 DEB            
1 52654U 22052BJ  22140.45531166  .00273726  38782-4  86611-3 0  9997
2 52654  53.2127  51.7353 0008336 307.8277  52.1996 15.90768273   899
COSMOS 2556             
1 52713U 22054A   22142.54003126 -.00000072  00000+0  00000+0 0  9991
2 52713  97.6964  57.0268 0049027  44.0136  34.4882 15.13580243   493
2022-054B               
1 52714U 22054B   22142.54254830 -.00000127  00000+0  00000+0 0  9993
2 52714  97.7011  57.0985 0154737  64.1197 106.2217 15.40107818   492
CST-100 STARLINER OFT-2 
1 52715U 22055A   22142.41742970  .00010590  00000+0  19593-3 0  9993
2 52715  51.6434 104.2167 0005050 142.6721   4.1704 15.49604431341189
2022-056A               
1 52716U 22056A   22142.26602776  .00000324  00000+0  19649-3 0  9993
2 52716  86.0004 319.4050 0017513 301.6470  58.2983 14.03059471   268
2022-056B               
1 52717U 22056B   22142.26496496 -.00000578  00000+0 -37820-3 0  9998
2 52717  86.0021 319.4041 0013250 300.7456  59.2414 14.03897212   269
